NAVSTAR 51 (USA 166)    
1 27663U 03005A   26032.50659423  .00000047  00000+0  00000+0 0  9998
2 27663  54.9135 220.3578 0148670  52.4469 318.4284  2.00567970168591
NAVSTAR 54 (USA 177)    
1 28190U 04009A   26032.51961179 -.00000007  00000+0  00000+0 0  9991
2 28190  54.9405 281.1690 0109726 168.2827   8.8894  2.00558932160227
NAVSTAR 56 (USA 180)    
1 28474U 04045A   26032.15008012 -.00000096  00000+0  00000+0 0  9992
2 28474  55.2132 330.3779 0171149 311.5015  20.7786  2.00571771155692
NAVSTAR 57 (USA 183)    
1 28874U 05038A   26032.49248554 -.00000002  00000+0  00000+0 0  9990
2 28874  54.9874 278.6541 0129817 294.7920 244.8679  2.00575010149118
METEOSAT-9 (MSG-2)      
1 28912U 05049B   26032.28546674  .00000113  00000+0  00000+0 0  9998
2 28912   9.0536  55.4906 0001568 213.8551  10.5070  1.00277024  5631
NAVSTAR 59 (USA 192)    
1 29601U 06052A   26032.79862699  .00000043  00000+0  00000+0 0  9995
2 29601  54.9618 219.3709 0088256  88.8104 272.2060  2.00549620140699
NAVSTAR 60 (USA 196)    
1 32260U 07047A   26032.10993219 -.00000017  00000+0  00000+0 0  9995
2 32260  53.9909  85.6763 0163587  85.7279 276.2110  2.00562219134085
NAVSTAR 61 (USA 199)    
1 32384U 07062A   26032.17105351 -.00000001  00000+0  00000+0 0  9991
2 32384  55.1390 279.6204 0032074 160.9315  12.3880  2.00551498132783
GOES 14                 
1 35491U 09033A   26032.78863972  .00000110  00000+0  00000+0 0  9990
2 35491   1.3381  84.8325 0001503 263.5205 286.3929  1.00109384  5237
EWS-G2 (GOES 15)        
1 36411U 10008A   26032.93073002  .00000026  00000+0  00000+0 0  9997
2 36411   0.9370  85.7384 0005141 197.2558 245.7145  1.00274844 58280
GSAT0101 (GALILEO-PFM)  
1 37846U 11060A   26031.17401733 -.00000101  00000+0  00000+0 0  9995
2 37846  57.0394 345.4798 0003785 342.0012  17.9687  1.70475518 88780
GSAT0102 (GALILEO-FM2)  
1 37847U 11060B   26028.17191353 -.00000088  00000+0  00000+0 0  9990
2 37847  57.0412 345.5616 0005498 327.3528  35.6656  1.70475712 88748
LUCH-5A                 
1 37951U 11074B   26032.88028975 -.00000063  00000+0  00000+0 0  9996
2 37951   8.4093  75.8150 0004797 219.7082 320.3123  1.00272131 51695
METEOSAT-10 (MSG-3)     
1 38552U 12035B   26032.91850995 -.00000018  00000+0  00000+0 0  9991
2 38552   4.3512  61.5932 0002302 277.6211 123.5372  1.00271468 49509
METOP-B                 
1 38771U 12049A   26032.89755101  .00000135  00000+0  81578-4 0  9992
2 38771  98.6717  86.9705 0002670  39.1635 320.9736 14.21431745694048
NAVSTAR 67 (USA 239)    
1 38833U 12053A   26032.20688392 -.00000018  00000+0  00000+0 0  9995
2 38833  53.5637 149.1718 0176619  64.5588 297.2231  2.00565376 96716
GSAT0103 (GALILEO-FM3)  
1 38857U 12055A   26031.80100445 -.00000022  00000+0  00000+0 0  9991
2 38857  55.7195 105.2900 0004408 278.9692  81.0319  1.70473281 82680
