[{"OBJECT_NAME":"GPS BIIR-08","OBJECT_ID":"2003-005A","EPOCH":"2026-02-01T12:09:29.741472","MEAN_MOTION":2.0056797,"ECCENTRICITY":0.01486701,"INCLINATION":54.9135,"RA_OF_ASC_NODE":220.3578,"ARG_OF_PERICENTER":52.4469,"MEAN_ANOMALY":318.4284,"EPHEMERIS_TYPE":0,"CLASSIFICATION_TYPE":"U","NORAD_CAT_ID":27663,"ELEMENT_SET_NO":999,"REV_AT_EPOCH":16859,"BSTAR":0,"MEAN_MOTION_DOT":4.7e-7,"MEAN_MOTION_DDOT":0},{"OBJECT_NAME":"GPS BIIR-11","OBJECT_ID":"2004-009A","EPOCH":"2026-02-01T12:28:14.458656","MEAN_MOTION":2.00558932,"ECCENTRICITY":0.01097264,"INCLINATION":54.9405,"RA_OF_ASC_NODE":281.169,"ARG_OF_PERICENTER":168.2827,"MEAN_ANOMALY":8.8894,"EPHEMERIS_TYPE":0,"CLASSIFICATION_TYPE":"U","NORAD_CAT_ID":28190,"ELEMENT_SET_NO":999,"REV_AT_EPOCH":16022,"BSTAR":0,"MEAN_MOTION_DOT":-7.0e-8,"MEAN_MOTION_DDOT":0},{"OBJECT_NAME":"GPS BIIR-13","OBJECT_ID":"2004-045A","EPOCH":"2026-02-01T03:36:06.922368","MEAN_MOTION":2.00571771,"ECCENTRICITY":0.01711491,"INCLINATION":55.2132,"RA_OF_ASC_NODE":330.3779,"ARG_OF_PERICENTER":311.5015,"MEAN_ANOMALY":20.7786,"EPHEMERIS_TYPE":0,"CLASSIFICATION_TYPE":"U","NORAD_CAT_ID":28474,"ELEMENT_SET_NO":999,"REV_AT_EPOCH":15569,"BSTAR":0,"MEAN_MOTION_DOT":-9.6e-7,"MEAN_MOTION_DDOT":0},{"OBJECT_NAME":"GPS BIIR-14M","OBJECT_ID":"2005-038A","EPOCH":"2026-02-01T11:49:10.750656","MEAN_MOTION":2.0057501,"ECCENTRICITY":0.01298171,"INCLINATION":54.9874,"RA_OF_ASC_NODE":278.6541,"ARG_OF_PERICENTER":294.792,"MEAN_ANOMALY":244.8679,"EPHEMERIS_TYPE":0,"CLASSIFICATION_TYPE":"U","NORAD_CAT_ID":28874,"ELEMENT_SET_NO":999,"REV_AT_EPOCH":14911,"BSTAR":0,"MEAN_MOTION_DOT":-2.0e-8,"MEAN_MOTION_DDOT":0},{"OBJECT_NAME":"METEOSAT-9 (MSG-2)","OBJECT_ID":"2005-049B","EPOCH":"2026-02-01T06:51:04.326336","MEAN_MOTION":1.00277024,"ECCENTRICITY":0.00015689,"INCLINATION":9.0536,"RA_OF_ASC_NODE":55.4906,"ARG_OF_PERICENTER":213.8551,"MEAN_ANOMALY":10.507,"EPHEMERIS_TYPE":0,"CLASSIFICATION_TYPE":"U","NORAD_CAT_ID":28912,"ELEMENT_SET_NO":999,"REV_AT_EPOCH":563,"BSTAR":0,"MEAN_MOTION_DOT":1.13e-6,"MEAN_MOTION_DDOT":0},{"OBJECT_NAME":"GPS BIIR-16M","OBJECT_ID":"2006-052A","EPOCH":"2026-02-01T19:10:01.371936","MEAN_MOTION":2.0054962,"ECCENTRICITY":0.00882561,"INCLINATION":54.9618,"RA_OF_ASC_NODE":219.3709,"ARG_OF_PERICENTER":88.8104,"MEAN_ANOMALY":272.206,"EPHEMERIS_TYPE":0,"CLASSIFICATION_TYPE":"U","NORAD_CAT_ID":29601,"ELEMENT_SET_NO":999,"REV_AT_EPOCH":14069,"BSTAR":0,"MEAN_MOTION_DOT":4.3e-7,"MEAN_MOTION_DDOT":0},{"OBJECT_NAME":"GPS BIIR-17M","OBJECT_ID":"2007-047A","EPOCH":"2026-02-01T02:38:18.141216","MEAN_MOTION":2.00562219,"ECCENTRICITY":0.01635874,"INCLINATION":53.9909,"RA_OF_ASC_NODE":85.6763,"ARG_OF_PERICENTER":85.7279,"MEAN_ANOMALY":276.211,"EPHEMERIS_TYPE":0,"CLASSIFICATION_TYPE":"U","NORAD_CAT_ID":32260,"ELEMENT_SET_NO":999,"REV_AT_EPOCH":13408,"BSTAR":0,"MEAN_MOTION_DOT":-1.7e-7,"MEAN_MOTION_DDOT":0},{"OBJECT_NAME":"GPS BIIR-18M","OBJECT_ID":"2007-062A","EPOCH":"2026-02-01T04:06:19.023264","MEAN_MOTION":2.00551498,"ECCENTRICITY":0.00320747,"INCLINATION":55.139,"RA_OF_ASC_NODE":279.6204,"ARG_OF_PERICENTER":160.9315,"MEAN_ANOMALY":12.388,"EPHEMERIS_TYPE":0,"CLASSIFICATION_TYPE":"U","NORAD_CAT_ID":32384,"ELEMENT_SET_NO":999,"REV_AT_EPOCH":13278,"BSTAR":0,"MEAN_MOTION_DOT":-1.0e-8,"MEAN_MOTION_DDOT":0},{"OBJECT_NAME":"GOES 14","OBJECT_ID":"2009-033A","EPOCH":"2026-02-01T18:55:38.471808","MEAN_MOTION":1.00109384,"ECCENTRICITY":0.00015036,"INCLINATION":1.3381,"RA_OF_ASC_NODE":84.8325,"ARG_OF_PERICENTER":263.5205,"MEAN_ANOMALY":286.3929,"EPHEMERIS_TYPE":0,"CLASSIFICATION_TYPE":"U","NORAD_CAT_ID":35491,"ELEMENT_SET_NO":999,"REV_AT_EPOCH":523,"BSTAR":0,"MEAN_MOTION_DOT":1.1e-6,"MEAN_MOTION_DDOT":0},{"OBJECT_NAME":"GOES 15","OBJECT_ID":"2010-008A","EPOCH":"2026-02-01T22:20:15.073728","MEAN_MOTION":1.00274844,"ECCENTRICITY":0.00051413,"INCLINATION":0.937,"RA_OF_ASC_NODE":85.7384,"ARG_OF_PERICENTER":197.2558,"MEAN_ANOMALY":245.7145,"EPHEMERIS_TYPE":0,"CLASSIFICATION_TYPE":"U","NORAD_CAT_ID":36411,"ELEMENT_SET_NO":999,"REV_AT_EPOCH":5828,"BSTAR":0,"MEAN_MOTION_DOT":2.6e-7,"MEAN_MOTION_DDOT":0},{"OBJECT_NAME":"GSAT0101 (GALILEO-PFM)","OBJECT_ID":"2011-060A","EPOCH":"2026-01-31T04:10:35.097312","MEAN_MOTION":1.70475518,"ECCENTRICITY":0.00037857,"INCLINATION":57.0394,"RA_OF_ASC_NODE":345.4798,"ARG_OF_PERICENTER":342.0012,"MEAN_ANOMALY":17.9687,"EPHEMERIS_TYPE":0,"CLASSIFICATION_TYPE":"U","NORAD_CAT_ID":37846,"ELEMENT_SET_NO":999,"REV_AT_EPOCH":8878,"BSTAR":0,"MEAN_MOTION_DOT":-1.01e-6,"MEAN_MOTION_DDOT":0},{"OBJECT_NAME":"GSAT0102 (GALILEO-FM2)","OBJECT_ID":"2011-060B","EPOCH":"2026-01-28T04:07:33.328992","MEAN_MOTION":1.70475712,"ECCENTRICITY":0.00054988,"INCLINATION":57.0412,"RA_OF_ASC_NODE":345.5616,"ARG_OF_PERICENTER":327.3528,"MEAN_ANOMALY":35.6656,"EPHEMERIS_TYPE":0,"CLASSIFICATION_TYPE":"U","NORAD_CAT_ID":37847,"ELEMENT_SET_NO":999,"REV_AT_EPOCH":8874,"BSTAR":0,"MEAN_MOTION_DOT":-8.8e-7,"MEAN_MOTION_DDOT":0},{"OBJECT_NAME":"LUCH 5A","OBJECT_ID":"2011-074B","EPOCH":"2026-02-01T21:07:37.034400","MEAN_MOTION":1.00272131,"ECCENTRICITY":0.0004797,"INCLINATION":8.4093,"RA_OF_ASC_NODE":75.815,"ARG_OF_PERICENTER":219.7082,"MEAN_ANOMALY":320.3123,"EPHEMERIS_TYPE":0,"CLASSIFICATION_TYPE":"U","NORAD_CAT_ID":37951,"ELEMENT_SET_NO":999,"REV_AT_EPOCH":5169,"BSTAR":0,"MEAN_MOTION_DOT":-6.3e-7,"MEAN_MOTION_DDOT":0},{"OBJECT_NAME":"METEOSAT-10 (MSG-3)","OBJECT_ID":"2012-035B","EPOCH":"2026-02-01T22:02:39.259680","MEAN_MOTION":1.00271468,"ECCENTRICITY":0.00023021,"INCLINATION":4.3512,"RA_OF_ASC_NODE":61.5932,"ARG_OF_PERICENTER":277.6211,"MEAN_ANOMALY":123.5372,"EPHEMERIS_TYPE":0,"CLASSIFICATION_TYPE":"U","NORAD_CAT_ID":38552,"ELEMENT_SET_NO":999,"REV_AT_EPOCH":4950,"BSTAR":0,"MEAN_MOTION_DOT":-1.8e-7,"MEAN_MOTION_DDOT":0},{"OBJECT_NAME":"SARSAT 13 (METOP-B)","OBJECT_ID":"2012-049A","EPOCH":"2026-02-01T21:32:28.407264","MEAN_MOTION":14.21431745,"ECCENTRICITY":0.00026703,"INCLINATION":98.6717,"RA_OF_ASC_NODE":86.9705,"ARG_OF_PERICENTER":39.1635,"MEAN_ANOMALY":320.9736,"EPHEMERIS_TYPE":0,"CLASSIFICATION_TYPE":"U","NORAD_CAT_ID":38771,"ELEMENT_SET_NO":999,"REV_AT_EPOCH":69404,"BSTAR":8.1577973e-5,"MEAN_MOTION_DOT":1.35e-6,"MEAN_MOTION_DDOT":0},{"OBJECT_NAME":"GPS BIIF-3","OBJECT_ID":"2012-053A","EPOCH":"2026-02-01T04:57:54.770688","MEAN_MOTION":2.00565376,"ECCENTRICITY":0.01766196,"INCLINATION":53.5637,"RA_OF_ASC_NODE":149.1718,"ARG_OF_PERICENTER":64.5588,"MEAN_ANOMALY":297.2231,"EPHEMERIS_TYPE":0,"CLASSIFICATION_TYPE":"U","NORAD_CAT_ID":38833,"ELEMENT_SET_NO":999,"REV_AT_EPOCH":9671,"BSTAR":0,"MEAN_MOTION_DOT":-1.8e-7,"MEAN_MOTION_DDOT":0},{"OBJECT_NAME":"GSAT0103 (GALILEO-FM3)","OBJECT_ID":"2012-055A","EPOCH":"2026-01-31T19:13:26.784480","MEAN_MOTION":1.70473281,"ECCENTRICITY":0.00044085,"INCLINATION":55.7195,"RA_OF_ASC_NODE":105.29,"ARG_OF_PERICENTER":278.9692,"MEAN_ANOMALY":81.0319,"EPHEMERIS_TYPE":0,"CLASSIFICATION_TYPE":"U","NORAD_CAT_ID":38857,"ELEMENT_SET_NO":999,"REV_AT_EPOCH":8268,"BSTAR":0,"MEAN_MOTION_DOT":-2.2e-7,"MEAN_MOTION_DDOT":0}]
